#cP2017 11 18  0  0  0.00000000      96 ORBIT IGS14 HLM  IGS
## 1975 518400.00000000   900.00000000 58075 0.0000000000000
+   32   G01G02G03G04G05G06G07G08G09G10G11G12G13G14G15G16G17
+        G18G19G20G21G22G23G24G25G26G27G28G29G30G31G32  0  0
+          0  0  0  0  0  0  0  0  0  0  0  0  0  0  0  0  0
+          0  0  0  0  0  0  0  0  0  0  0  0  0  0  0  0  0
+          0  0  0  0  0  0  0  0  0  0  0  0  0  0  0  0  0
++         2  2  2  0  2  2  2  2  2  2  2  2  2  2  2  2  2
++         2  2  2  2  2  2  2  2  2  2  2  2  2  2  2  0  0
++         0  0  0  0  0  0  0  0  0  0  0  0  0  0  0  0  0
++         0  0  0  0  0  0  0  0  0  0  0  0  0  0  0  0  0
++         0  0  0  0  0  0  0  0  0  0  0  0  0  0  0  0  0
%c G  cc GPS ccc cccc cccc cccc cccc ccccc ccccc ccccc ccccc
%c cc cc ccc ccc cccc cccc cccc cccc ccccc ccccc ccccc ccccc
%f  1.2500000  1.025000000  0.00000000000  0.000000000000000
%f  0.0000000  0.000000000  0.00000000000  0.000000000000000
%i    0    0    0    0      0      0      0      0         0
%i    0    0    0    0      0      0      0      0         0
/* RAPID ORBIT COMBINATION FROM WEIGHTED AVERAGE OF:        
/* cod emr esa gfz jpl ngs sio usn whu                      
/* REFERENCED TO IGS TIME (IGST) AND TO WEIGHTED MEAN POLE: 
/* PCV:IGS14_1973 OL/AL:FES2004  NONE     Y  ORB:CMB CLK:CMB
*  2017 11 18 19 30  0.00000000
PG01 -13495.273198  19030.595092  12295.402119    -11.202206  3  4  3 101       
PG02  14746.411282   3952.053169 -21214.763703    277.521000  6  7     60       
PG03 -20233.201685  13549.841280 -10569.724947    -40.149414  6  5  5  96       
PG04 -22817.445052 -12754.059006   5943.444138 999999.999999
PG05  25292.441852  -1495.421294  -8411.323934    -22.337126  4  3  7  98       
PG06   9170.476797  16513.664139 -18650.201636    410.331508  7  4  3 119       
PG07  -5305.939057  25704.077169   2150.877796    277.752608  5  7  5 113       
PG08 -18164.321025   1269.905341  19431.050145    -81.071331  6  5  5  94       
PG09    927.357585  18975.870363 -18590.925631    473.143670  7  5  6 108       
PG10  -9004.872493 -12973.318479  21396.051997    113.358832  5  7  6 119       
PG11 -11447.154752  15657.182830  17632.051989   -726.996737  6  4  7  75       
PG12  22884.708922 -10634.662458  -8123.837281    364.247402  4  4  1 121       
PG13  19985.202881   7234.610225  15800.710090    -94.070172  5  6  5 121       
PG14 -18591.815889 -18986.148072  -1758.493598    -88.837274  7  8  5  97       
PG15  17417.559018  -4508.302820  19455.399258   -357.206820  4  1  3 128       
PG16 -25697.785073    132.119840  -7638.119592     36.282095  6  8  6  99       
PG17  13690.764089  21734.246069   7433.997516   -143.693339  8  8  6  94       
PG18   2652.291772 -17282.102335  20546.939363    632.811762  6  8  6 102       
PG19  17991.144698  19332.283879  -1577.460208   -474.881829  8  8  8  97       
PG20  21778.289053 -13798.327183   6163.094524    493.142540  6  2  4 112       
PG21   1552.386418 -26145.522696   4965.482059   -460.889482  7 10  6 111       
PG22 -24199.383600  10575.877911  -2733.682114   -193.508776  1  4  5  83       
PG23 -10019.734811  11770.736516 -21329.416002   -218.721520  5  3     92       
PG24  14248.514635 -16798.180298  14550.419008    -42.370642  6  5  5 136       
PG25  12426.675718 -15804.754190 -17395.600127   -491.717030  7  3  3  95       
PG26 -19900.255901  -6097.528213 -16553.636306   -357.430717  5  6  5  84       
PG27 -21832.506362 -10158.344339  11400.057059    348.870436  5  4  6  76       
PG28   4145.587152  14379.020396  22581.612194    663.672986  7  8  4 114       
PG29   4307.218054 -15847.205105 -20890.331560    536.566712  6  7  5  97       
PG30   1398.828978  23812.710874  11534.225566    127.053345  3  5    119       
PG31 -10075.423916 -14487.149329 -19656.378908    161.244174  6  8  6 103       
PG32 -16226.063716 -20417.098273   5223.801630   -524.345217  3  3  6  99       
*  2017 11 18 19 45  0.00000000
PG01 -13361.328138  17457.596882  14567.612571    -11.204491  4  3  3  96       
PG02  14330.197297   6443.080735 -20921.821319    277.512264  6  7     81       
PG03 -21315.060051  13652.633185  -7987.306933    -40.144421  6  5  5 109       
PG04 -23116.445388 -13248.710996   3188.325522 999999.999999
PG05  24343.497293   -904.946019 -10928.242915    -22.336139  5  4  7 107       
PG06   8621.781020  18484.173721 -16990.305680    410.332837  7  5  3 121       
PG07  -5601.973185  25697.735986   -729.494162    277.748082  6  7  5 107       
PG08 -19682.268177   -218.012735  17941.213837    -81.072756  6  5  6  96       
PG09   -806.589003  17619.629050 -19889.075336    473.147782  7  5  6 111       
PG10  -6673.912160 -13766.794756  21739.586340    113.365684  5  6  5 116       
PG11 -12079.202588  13529.169649  18876.531928   -726.998163  5  4  7  75       
PG12  23658.647509 -10648.659011  -5341.888384    364.245588  4  4  1 105       
PG13  20979.237599   8629.947680  13683.864382    -94.070576  5  6  5 117       
PG14 -18465.071324 -19201.138120   1089.538842    -88.837909  7  8  5 113       
PG15  19067.286455  -3060.032680  18196.154734   -357.207371  4  2  3 122       
PG16 -24760.574386   -226.306204 -10278.993092     36.281982  7  9  6 105       
PG17  12902.970743  21180.677370  10087.082030   -143.691150  7  7  6  76       
PG18   4746.714057 -17949.302195  19527.628329    632.812141  6  8  6  94       
PG19  17818.314030  19468.885896   1327.618624   -474.879762  8  8  8  81       
PG20  22439.768790 -13713.034955   3447.185759    493.143325  6  2  4 104       
PG21   1906.759281 -26416.162002   2183.006715   -460.886328  8 10  7 101       
PG22 -24495.603534  10306.197785     39.022894   -193.520148  1  5  4  47       
PG23 -11898.302977  10127.114296 -21247.121525   -218.721748  4  3  1  97       
PG24  14163.705927 -14979.795405  16501.244351    -42.370923  5  6  4 133       
PG25  14242.166258 -16231.764971 -15468.628785   -491.722663  7  1  3  88       
PG26 -18067.342343  -6886.919404 -18248.473711   -357.418220  5  6  5  53       
PG27 -22581.642238 -11057.648147   8849.617391    348.873485  5  3  7  69       
PG28   1774.409371  14933.970622  22532.357364    663.675976  7  7  3 111       
PG29   6047.568868 -14156.618737 -21658.373443    536.562601  5  7  4  92       
PG30    828.683075  24884.318541   9045.639162    127.050937  4  5    110       
PG31  -9419.343705 -16583.494161 -18243.475397    161.241839  7  8  6 114       
PG32 -15501.625469 -20104.840503   7936.045296   -524.347851  3  3  6 106       
*  2017 11 18 20  0  0.00000000
PG01 -13272.686238  15637.816329  16583.749598    -11.206733  4  3  4  82       
PG02  14042.082218   8892.057261 -20252.351948    277.503548  6  8  2  66       
PG03 -22110.600390  13701.824412  -5267.151398    -40.139369  6  5  5  93       
PG04 -23181.220284 -13555.061695    379.965612 999999.999999
PG05  23173.830242   -163.766839 -13259.997496    -22.335067  6  5  7 104       
PG06   8208.815980  20278.411241 -15037.548436    410.334238  6  5  4 112       
PG07  -5843.975172  25381.813426  -3596.930013    277.743366  6  6  6 106       
PG08 -21131.137391  -1508.156945  16145.162783    -81.073678  6  5  6  93       
PG09  -2707.635631  16275.326976 -20845.877934    473.151942  7  5  6 105       
PG10  -4369.666213 -14687.585130  21710.030393    113.372510  5  6  5 115       
PG11 -12831.763171  11306.959561  19781.772246   -726.999833  5  4  7  89       
PG12  24125.310297 -10605.026147  -2467.274319    364.244236  4  3    107       
PG13  21867.144009   9788.894382  11329.712657    -94.070750  6  6  5 114       
PG14 -18117.385465 -19202.784851   3919.054906    -88.838637  7  8  5 124       
PG15  20648.584157  -1784.368116  16622.827630   -357.207590  4  3  3 128       
PG16 -23571.141318   -721.687355 -12747.850758     36.281602  7  9  6 110       
PG17  11871.268791  20481.502868  12570.706485   -143.688684  7  5  6  89       
PG18   6692.426218 -18663.040758  18186.459684    632.812217  6  7  5 100       
PG19  17413.940181  19386.511472   4209.469410   -474.878009  8  8  9  86       
PG20  22827.866523 -13518.404898    671.681967    493.144449  5  3  3 100       
PG21   2220.411313 -26389.866256   -636.907187   -460.882858  8 10  7 103       
PG22 -24518.612431   9924.518935   2811.079763   -193.531602  2  5  4  44       
PG23 -13827.186986   8599.083425 -20791.439087   -218.721799  3  3  2 107       
PG24  14144.012786 -12956.351178  18163.130642    -42.371784  5  6  4 137       
PG25  15816.597551 -16671.817197 -13275.552712   -491.728331  7     4  77       
PG26 -16116.094932  -7836.347734 -19630.230948   -357.405667  5  5  5  44       
PG27 -23146.224776 -11729.680187   6148.479348    348.876566  6  4  6  74       
PG28   -536.485124  15618.395646  22117.657873    663.679052  7  6  3 111       
PG29   7928.471762 -12521.377797 -22054.242741    536.558193  5  6  3 104       
PG30    371.642331  25698.294412   6400.144268    127.048388  4  5    113       
PG31  -8904.571830 -18536.931156 -16510.642462    161.239368  7  8  6  95       
PG32 -14527.209437 -19645.778629  10512.288134   -524.350521  4  2  6 114       
EOF
